[{"OBJECT_NAME":"SALSAT","OBJECT_ID":"2020-068K","EPOCH":"2026-03-09T22:26:21.804576","MEAN_MOTION":15.28191989,"ECCENTRICITY":0.00082652,"INCLINATION":97.8859,"RA_OF_ASC_NODE":66.0795,"ARG_OF_PERICENTER":295.8051,"MEAN_ANOMALY":64.2334,"EPHEMERIS_TYPE":0,"CLASSIFICATION_TYPE":"U","NORAD_CAT_ID":46495,"ELEMENT_SET_NO":999,"REV_AT_EPOCH":30019,"BSTAR":0.00040842582,"MEAN_MOTION_DOT":0.00011156,"MEAN_MOTION_DDOT":0},{"OBJECT_NAME":"STARLINK-32243","OBJECT_ID":"2024-138N","EPOCH":"2026-03-09T22:20:50.063136","MEAN_MOTION":15.30186409,"ECCENTRICITY":0.00011117,"INCLINATION":53.161,"RA_OF_ASC_NODE":308.5466,"ARG_OF_PERICENTER":78.3415,"MEAN_ANOMALY":281.7711,"EPHEMERIS_TYPE":0,"CLASSIFICATION_TYPE":"U","NORAD_CAT_ID":60367,"ELEMENT_SET_NO":999,"REV_AT_EPOCH":9066,"BSTAR":7.2806564e-5,"MEAN_MOTION_DOT":1.797e-5,"MEAN_MOTION_DDOT":0}]
